[{"OBJECT_NAME":"FLOCK 4Q-11","OBJECT_ID":"2023-174T","EPOCH":"2026-03-09T22:58:16.261824","MEAN_MOTION":15.45173932,"ECCENTRICITY":0.00077811,"INCLINATION":97.3894,"RA_OF_ASC_NODE":155.5718,"ARG_OF_PERICENTER":154.8881,"MEAN_ANOMALY":205.2748,"EPHEMERIS_TYPE":0,"CLASSIFICATION_TYPE":"U","NORAD_CAT_ID":58273,"ELEMENT_SET_NO":999,"REV_AT_EPOCH":13024,"BSTAR":0.00060116033,"MEAN_MOTION_DOT":0.00028516,"MEAN_MOTION_DDOT":0},{"OBJECT_NAME":"BANDWAGON-2 OBJECT Y","OBJECT_ID":"2024-247Y","EPOCH":"2026-03-09T10:19:16.593888","MEAN_MOTION":15.4203694,"ECCENTRICITY":0.00084513,"INCLINATION":44.9978,"RA_OF_ASC_NODE":95.1721,"ARG_OF_PERICENTER":2.035,"MEAN_ANOMALY":358.0572,"EPHEMERIS_TYPE":0,"CLASSIFICATION_TYPE":"U","NORAD_CAT_ID":62399,"ELEMENT_SET_NO":999,"REV_AT_EPOCH":6797,"BSTAR":0.00079019986,"MEAN_MOTION_DOT":0.00034304,"MEAN_MOTION_DDOT":0}]
